0 IRIDIUM 33 DEB
1 34773U 97051LS  13282.32775197  .00004728  00000-0  15513-2 0  7203
2 34773 086.4199 136.0719 0016294 273.2242 140.9206 14.38120534243613
0 IRIDIUM 33 DEB
1 34773U 97051LS  13283.80258157  .00004524  00000-0  14841-2 0  7217
2 34773 086.4199 135.4558 0016168 267.7199 217.1310 14.38130130243825
0 IRIDIUM 33 DEB
1 34773U 97051LS  13285.82211153  .00004091  00000-0  13412-2 0  7229
2 34773 086.4198 134.6118 0016156 260.4857 233.4236 14.38142281244116
0 IRIDIUM 33 DEB
1 34773U 97051LS  13288.05229368  .00005864  00000-0  19239-2 0  7237
2 34773 086.4190 133.6795 0016116 252.1600 260.8437 14.38160734244433
0 IRIDIUM 33 DEB
1 34773U 97051LS  13290.53313097  .00006184  00000-0  20281-2 0  7242
2 34773 086.4178 132.6427 0016110 242.8555 146.3649 14.38185850244797
0 IRIDIUM 33 DEB
1 34773U 97051LS  13292.55534750  .00005017  00000-0  16437-2 0  7250
2 34773 086.4175 131.7971 0016185 235.3441 177.2714 14.38204807245084
0 IRIDIUM 33 DEB
1 34773U 97051LS  13294.72785405  .00006665  00000-0  21844-2 0  7265
2 34773 086.4179 130.8889 0016271 227.4182 266.3770 14.38223073245398
